STARLINK-2022           
1 47643U 21012Z   24007.17226368  .00002118  00000+0  16106-3 0  9996
2 47643  53.0559   9.3673 0001344  95.9998 264.1144 15.06390559160295
